<?xml version="1.0" encoding="UTF-8"?>
<ndm xmlns:xsi="http://www.w3.org/2001/XMLSchema-instance" xsi:noNamespaceSchemaLocation="https://sanaregistry.org/r/ndmxml_unqualified/ndmxml-2.0.0-master-2.0.xsd">
<omm id="CCSDS_OMM_VERS" version="2.0">
<header><CREATION_DATE/><ORIGINATOR/></header><body><segment><metadata><OBJECT_NAME>KUIPER-00089</OBJECT_NAME><OBJECT_ID>2025-151U</OBJECT_ID><CENTER_NAME>EARTH</CENTER_NAME><REF_FRAME>TEME</REF_FRAME><TIME_SYSTEM>UTC</TIME_SYSTEM><MEAN_ELEMENT_THEORY>SGP4</MEAN_ELEMENT_THEORY></metadata><data><meanElements><EPOCH>2025-09-07T02:37:54.782976</EPOCH><MEAN_MOTION>15.36539578</MEAN_MOTION><ECCENTRICITY>.00071678</ECCENTRICITY><INCLINATION>51.8807</INCLINATION><RA_OF_ASC_NODE>32.7919</RA_OF_ASC_NODE><ARG_OF_PERICENTER>346.9674</ARG_OF_PERICENTER><MEAN_ANOMALY>13.1126</MEAN_ANOMALY></meanElements><tleParameters><EPHEMERIS_TYPE>0</EPHEMERIS_TYPE><CLASSIFICATION_TYPE>U</CLASSIFICATION_TYPE><NORAD_CAT_ID>64834</NORAD_CAT_ID><ELEMENT_SET_NO>999</ELEMENT_SET_NO><REV_AT_EPOCH>811</REV_AT_EPOCH><BSTAR>.24354996E-2</BSTAR><MEAN_MOTION_DOT>.88921E-3</MEAN_MOTION_DOT><MEAN_MOTION_DDOT>0</MEAN_MOTION_DDOT></tleParameters></data></segment></body></omm>
<omm id="CCSDS_OMM_VERS" version="2.0">
<header><CREATION_DATE/><ORIGINATOR/></header><body><segment><metadata><OBJECT_NAME>KUIPER-00090</OBJECT_NAME><OBJECT_ID>2025-151V</OBJECT_ID><CENTER_NAME>EARTH</CENTER_NAME><REF_FRAME>TEME</REF_FRAME><TIME_SYSTEM>UTC</TIME_SYSTEM><MEAN_ELEMENT_THEORY>SGP4</MEAN_ELEMENT_THEORY></metadata><data><meanElements><EPOCH>2025-09-07T02:49:57.362592</EPOCH><MEAN_MOTION>15.36219978</MEAN_MOTION><ECCENTRICITY>.00069113</ECCENTRICITY><INCLINATION>51.8796</INCLINATION><RA_OF_ASC_NODE>32.8422</RA_OF_ASC_NODE><ARG_OF_PERICENTER>351.8170</ARG_OF_PERICENTER><MEAN_ANOMALY>8.2703</MEAN_ANOMALY></meanElements><tleParameters><EPHEMERIS_TYPE>0</EPHEMERIS_TYPE><CLASSIFICATION_TYPE>U</CLASSIFICATION_TYPE><NORAD_CAT_ID>64835</NORAD_CAT_ID><ELEMENT_SET_NO>999</ELEMENT_SET_NO><REV_AT_EPOCH>811</REV_AT_EPOCH><BSTAR>.14492066E-2</BSTAR><MEAN_MOTION_DOT>.51953E-3</MEAN_MOTION_DOT><MEAN_MOTION_DDOT>0</MEAN_MOTION_DDOT></tleParameters></data></segment></body></omm>
<omm id="CCSDS_OMM_VERS" version="2.0">
<header><CREATION_DATE/><ORIGINATOR/></header><body><segment><metadata><OBJECT_NAME>KUIPER-00091</OBJECT_NAME><OBJECT_ID>2025-151W</OBJECT_ID><CENTER_NAME>EARTH</CENTER_NAME><REF_FRAME>TEME</REF_FRAME><TIME_SYSTEM>UTC</TIME_SYSTEM><MEAN_ELEMENT_THEORY>SGP4</MEAN_ELEMENT_THEORY></metadata><data><meanElements><EPOCH>2025-09-07T02:20:54.123360</EPOCH><MEAN_MOTION>15.36673747</MEAN_MOTION><ECCENTRICITY>.00065361</ECCENTRICITY><INCLINATION>51.8792</INCLINATION><RA_OF_ASC_NODE>32.7063</RA_OF_ASC_NODE><ARG_OF_PERICENTER>330.2169</ARG_OF_PERICENTER><MEAN_ANOMALY>29.8445</MEAN_ANOMALY></meanElements><tleParameters><EPHEMERIS_TYPE>0</EPHEMERIS_TYPE><CLASSIFICATION_TYPE>U</CLASSIFICATION_TYPE><NORAD_CAT_ID>64836</NORAD_CAT_ID><ELEMENT_SET_NO>999</ELEMENT_SET_NO><REV_AT_EPOCH>811</REV_AT_EPOCH><BSTAR>.11616572E-2</BSTAR><MEAN_MOTION_DOT>.42125E-3</MEAN_MOTION_DOT><MEAN_MOTION_DDOT>0</MEAN_MOTION_DDOT></tleParameters></data></segment></body></omm>
<omm id="CCSDS_OMM_VERS" version="2.0">
<header><CREATION_DATE/><ORIGINATOR/></header><body><segment><metadata><OBJECT_NAME>KUIPER-00092</OBJECT_NAME><OBJECT_ID>2025-151X</OBJECT_ID><CENTER_NAME>EARTH</CENTER_NAME><REF_FRAME>TEME</REF_FRAME><TIME_SYSTEM>UTC</TIME_SYSTEM><MEAN_ELEMENT_THEORY>SGP4</MEAN_ELEMENT_THEORY></metadata><data><meanElements><EPOCH>2025-09-06T02:59:49.303680</EPOCH><MEAN_MOTION>15.36657635</MEAN_MOTION><ECCENTRICITY>.0007274</ECCENTRICITY><INCLINATION>51.8796</INCLINATION><RA_OF_ASC_NODE>37.4335</RA_OF_ASC_NODE><ARG_OF_PERICENTER>332.7603</ARG_OF_PERICENTER><MEAN_ANOMALY>27.3001</MEAN_ANOMALY></meanElements><tleParameters><EPHEMERIS_TYPE>0</EPHEMERIS_TYPE><CLASSIFICATION_TYPE>U</CLASSIFICATION_TYPE><NORAD_CAT_ID>64837</NORAD_CAT_ID><ELEMENT_SET_NO>999</ELEMENT_SET_NO><REV_AT_EPOCH>917</REV_AT_EPOCH><BSTAR>.19826566E-2</BSTAR><MEAN_MOTION_DOT>.72436E-3</MEAN_MOTION_DOT><MEAN_MOTION_DDOT>0</MEAN_MOTION_DDOT></tleParameters></data></segment></body></omm>
<omm id="CCSDS_OMM_VERS" version="2.0">
<header><CREATION_DATE/><ORIGINATOR/></header><body><segment><metadata><OBJECT_NAME>KUIPER-00093</OBJECT_NAME><OBJECT_ID>2025-151Y</OBJECT_ID><CENTER_NAME>EARTH</CENTER_NAME><REF_FRAME>TEME</REF_FRAME><TIME_SYSTEM>UTC</TIME_SYSTEM><MEAN_ELEMENT_THEORY>SGP4</MEAN_ELEMENT_THEORY></metadata><data><meanElements><EPOCH>2025-09-07T06:00:00.999648</EPOCH><MEAN_MOTION>15.28554566</MEAN_MOTION><ECCENTRICITY>.00071037</ECCENTRICITY><INCLINATION>51.8839</INCLINATION><RA_OF_ASC_NODE>32.3200</RA_OF_ASC_NODE><ARG_OF_PERICENTER>338.9026</ARG_OF_PERICENTER><MEAN_ANOMALY>321.8090</MEAN_ANOMALY></meanElements><tleParameters><EPHEMERIS_TYPE>0</EPHEMERIS_TYPE><CLASSIFICATION_TYPE>U</CLASSIFICATION_TYPE><NORAD_CAT_ID>64838</NORAD_CAT_ID><ELEMENT_SET_NO>999</ELEMENT_SET_NO><REV_AT_EPOCH>167</REV_AT_EPOCH><BSTAR>.23715508E-2</BSTAR><MEAN_MOTION_DOT>.67122E-3</MEAN_MOTION_DOT><MEAN_MOTION_DDOT>0</MEAN_MOTION_DDOT></tleParameters></data></segment></body></omm>
<omm id="CCSDS_OMM_VERS" version="2.0">
<header><CREATION_DATE/><ORIGINATOR/></header><body><segment><metadata><OBJECT_NAME>KUIPER-00094</OBJECT_NAME><OBJECT_ID>2025-151Z</OBJECT_ID><CENTER_NAME>EARTH</CENTER_NAME><REF_FRAME>TEME</REF_FRAME><TIME_SYSTEM>UTC</TIME_SYSTEM><MEAN_ELEMENT_THEORY>SGP4</MEAN_ELEMENT_THEORY></metadata><data><meanElements><EPOCH>2025-09-07T02:23:47.984352</EPOCH><MEAN_MOTION>15.36841801</MEAN_MOTION><ECCENTRICITY>.00065977</ECCENTRICITY><INCLINATION>51.8788</INCLINATION><RA_OF_ASC_NODE>32.7185</RA_OF_ASC_NODE><ARG_OF_PERICENTER>337.9765</ARG_OF_PERICENTER><MEAN_ANOMALY>22.0937</MEAN_ANOMALY></meanElements><tleParameters><EPHEMERIS_TYPE>0</EPHEMERIS_TYPE><CLASSIFICATION_TYPE>U</CLASSIFICATION_TYPE><NORAD_CAT_ID>64839</NORAD_CAT_ID><ELEMENT_SET_NO>999</ELEMENT_SET_NO><REV_AT_EPOCH>811</REV_AT_EPOCH><BSTAR>.16166825E-2</BSTAR><MEAN_MOTION_DOT>.59234E-3</MEAN_MOTION_DOT><MEAN_MOTION_DDOT>0</MEAN_MOTION_DDOT></tleParameters></data></segment></body></omm>
<omm id="CCSDS_OMM_VERS" version="2.0">
<header><CREATION_DATE/><ORIGINATOR/></header><body><segment><metadata><OBJECT_NAME>KUIPER-00081</OBJECT_NAME><OBJECT_ID>2025-171A</OBJECT_ID><CENTER_NAME>EARTH</CENTER_NAME><REF_FRAME>TEME</REF_FRAME><TIME_SYSTEM>UTC</TIME_SYSTEM><MEAN_ELEMENT_THEORY>SGP4</MEAN_ELEMENT_THEORY></metadata><data><meanElements><EPOCH>2025-09-06T08:28:10.908192</EPOCH><MEAN_MOTION>15.36258739</MEAN_MOTION><ECCENTRICITY>.00045272</ECCENTRICITY><INCLINATION>51.8763</INCLINATION><RA_OF_ASC_NODE>280.0707</RA_OF_ASC_NODE><ARG_OF_PERICENTER>212.0765</ARG_OF_PERICENTER><MEAN_ANOMALY>147.9947</MEAN_ANOMALY></meanElements><tleParameters><EPHEMERIS_TYPE>0</EPHEMERIS_TYPE><CLASSIFICATION_TYPE>U</CLASSIFICATION_TYPE><NORAD_CAT_ID>65132</NORAD_CAT_ID><ELEMENT_SET_NO>999</ELEMENT_SET_NO><REV_AT_EPOCH>522</REV_AT_EPOCH><BSTAR>.13219364E-2</BSTAR><MEAN_MOTION_DOT>.47368E-3</MEAN_MOTION_DOT><MEAN_MOTION_DDOT>0</MEAN_MOTION_DDOT></tleParameters></data></segment></body></omm>
<omm id="CCSDS_OMM_VERS" version="2.0">
<header><CREATION_DATE/><ORIGINATOR/></header><body><segment><metadata><OBJECT_NAME>KUIPER-00088</OBJECT_NAME><OBJECT_ID>2025-171B</OBJECT_ID><CENTER_NAME>EARTH</CENTER_NAME><REF_FRAME>TEME</REF_FRAME><TIME_SYSTEM>UTC</TIME_SYSTEM><MEAN_ELEMENT_THEORY>SGP4</MEAN_ELEMENT_THEORY></metadata><data><meanElements><EPOCH>2025-09-07T06:20:29.396832</EPOCH><MEAN_MOTION>15.36355303</MEAN_MOTION><ECCENTRICITY>.00041967</ECCENTRICITY><INCLINATION>51.8773</INCLINATION><RA_OF_ASC_NODE>275.6802</RA_OF_ASC_NODE><ARG_OF_PERICENTER>213.6663</ARG_OF_PERICENTER><MEAN_ANOMALY>146.4057</MEAN_ANOMALY></meanElements><tleParameters><EPHEMERIS_TYPE>0</EPHEMERIS_TYPE><CLASSIFICATION_TYPE>U</CLASSIFICATION_TYPE><NORAD_CAT_ID>65133</NORAD_CAT_ID><ELEMENT_SET_NO>999</ELEMENT_SET_NO><REV_AT_EPOCH>536</REV_AT_EPOCH><BSTAR>.17923748E-2</BSTAR><MEAN_MOTION_DOT>.6471E-3</MEAN_MOTION_DOT><MEAN_MOTION_DDOT>0</MEAN_MOTION_DDOT></tleParameters></data></segment></body></omm>

</ndm>
