KUIPER-00089            
1 64834U 25151U   25250.10966184  .00088921  00000+0  24355-2 0  9996
2 64834  51.8807  32.7919 0007167 346.9674  13.1126 15.36539578  8113
KUIPER-00090            
1 64835U 25151V   25250.11802503  .00051953  00000+0  14492-2 0  9998
2 64835  51.8796  32.8422 0006911 351.8170   8.2703 15.36219978  8118
KUIPER-00091            
1 64836U 25151W   25250.09784865  .00042125  00000+0  11617-2 0  9993
2 64836  51.8792  32.7063 0006536 330.2169  29.8445 15.36673747  8117
KUIPER-00092            
1 64837U 25151X   25249.12487620  .00072436  00000+0  19827-2 0  9994
2 64837  51.8796  37.4335 0007274 332.7603  27.3001 15.36657635  9172
KUIPER-00093            
1 64838U 25151Y   25250.25001157  .00067122  00000+0  23716-2 0  9996
2 64838  51.8839  32.3200 0007103 338.9026 321.8090 15.28554566  1671
KUIPER-00094            
1 64839U 25151Z   25250.09986093  .00059234  00000+0  16167-2 0  9997
2 64839  51.8788  32.7185 0006597 337.9765  22.0937 15.36841801  8112
KUIPER-00081            
1 65132U 25171A   25249.35290403  .00047368  00000+0  13219-2 0  9996
2 65132  51.8763 280.0707 0004527 212.0765 147.9947 15.36258739  5223
KUIPER-00088            
1 65133U 25171B   25250.26422913  .00064710  00000+0  17924-2 0  9999
2 65133  51.8773 275.6802 0004196 213.6663 146.4057 15.36355303  5363
